[{"OBJECT_NAME":"STARLINK-3241","OBJECT_ID":"2021-115X","EPOCH":"2026-03-09T11:48:35.673120","MEAN_MOTION":15.0884229,"ECCENTRICITY":5.082e-5,"INCLINATION":53.2169,"RA_OF_ASC_NODE":149.9793,"ARG_OF_PERICENTER":60.3093,"MEAN_ANOMALY":299.7949,"EPHEMERIS_TYPE":0,"CLASSIFICATION_TYPE":"U","NORAD_CAT_ID":49745,"ELEMENT_SET_NO":999,"REV_AT_EPOCH":23550,"BSTAR":-1.3707065e-5,"MEAN_MOTION_DOT":-5.06e-6,"MEAN_MOTION_DDOT":0},{"OBJECT_NAME":"CZ-6A DEB","OBJECT_ID":"2024-140FV","EPOCH":"2026-03-09T14:13:09.917760","MEAN_MOTION":15.12617909,"ECCENTRICITY":0.0033796,"INCLINATION":89.006,"RA_OF_ASC_NODE":281.0752,"ARG_OF_PERICENTER":172.4402,"MEAN_ANOMALY":187.7356,"EPHEMERIS_TYPE":0,"CLASSIFICATION_TYPE":"U","NORAD_CAT_ID":60794,"ELEMENT_SET_NO":999,"REV_AT_EPOCH":8371,"BSTAR":0.0056743,"MEAN_MOTION_DOT":0.0010168,"MEAN_MOTION_DDOT":0}]
